{"type": "FeatureCollection", "features": [{"type": "Feature", "properties": {"norad_id": 2807, "name": "OPS 7218 (TRANSIT 16)", "group": "nnss", "lat": -9.030795441730415, "lon": -6.333003041186655, "alt_km": 1076.2151758611963, "timestamp": "2025-12-21T16:47:55.006672+00:00", "meta": {"OBJECT_NAME": "OPS 7218 (TRANSIT 16)", "OBJECT_ID": "1967-048A", "EPOCH": "2025-12-21T12:16:37.767936", "MEAN_MOTION": 13.50724076, "ECCENTRICITY": 0.0022159, "INCLINATION": 89.6731, "RA_OF_ASC_NODE": 353.7252, "ARG_OF_PERICENTER": 90.6887, "MEAN_ANOMALY": 65.106, "EPHEMERIS_TYPE": 0, "CLASSIFICATION_TYPE": "U", "NORAD_CAT_ID": 2807, "ELEMENT_SET_NO": 999, "REV_AT_EPOCH": 88394, "BSTAR": 0.00015311, "MEAN_MOTION_DOT": 1.09e-06, "MEAN_MOTION_DDOT": 0}, "tle": {"line1": "1 02807U 67048A   25355.51154824  .00000109  00000+0  15311-3 0  9995", "line2": "2 02807  89.6731 353.7252 0022159  90.6887  65.1060 13.50724076883942"}}, "geometry": {"type": "Point", "coordinates": [-6.333003041186655, -9.030795441730415]}}, {"type": "Feature", "properties": {"norad_id": 2965, "name": "OPS 4947 (TRANSIT 17)", "group": "nnss", "lat": 36.56584145028572, "lon": -156.80552741302196, "alt_km": 1041.9282928456596, "timestamp": "2025-12-21T16:47:55.006694+00:00", "meta": {"OBJECT_NAME": "OPS 4947 (TRANSIT 17)", "OBJECT_ID": "1967-092A", "EPOCH": "2025-12-21T04:00:48.652128", "MEAN_MOTION": 13.53455665, "ECCENTRICITY": 0.00467789, "INCLINATION": 89.2487, "RA_OF_ASC_NODE": 23.7927, "ARG_OF_PERICENTER": 209.4251, "MEAN_ANOMALY": 220.3395, "EPHEMERIS_TYPE": 0, "CLASSIFICATION_TYPE": "U", "NORAD_CAT_ID": 2965, "ELEMENT_SET_NO": 999, "REV_AT_EPOCH": 87211, "BSTAR": 0.00018220255, "MEAN_MOTION_DOT": 1.34e-06, "MEAN_MOTION_DDOT": 0}, "tle": {"line1": "1 02965U 67092A   25355.16722977  .00000134  00000+0  18220-3 0  9990", "line2": "2 02965  89.2487  23.7927 0046778 209.4251 220.3395 13.53455665872113"}}, "geometry": {"type": "Point", "coordinates": [-156.80552741302196, 36.56584145028572]}}, {"type": "Feature", "properties": {"norad_id": 3133, "name": "OPS 7034 (TRANSIT 18)", "group": "nnss", "lat": -53.106816595654855, "lon": 93.62645898485398, "alt_km": 1072.8474647565763, "timestamp": "2025-12-21T16:47:55.006709+00:00", "meta": {"OBJECT_NAME": "OPS 7034 (TRANSIT 18)", "OBJECT_ID": "1968-012A", "EPOCH": "2025-12-21T09:08:20.853024", "MEAN_MOTION": 13.51567661, "ECCENTRICITY": 0.0074673, "INCLINATION": 90.0284, "RA_OF_ASC_NODE": 273.6634, "ARG_OF_PERICENTER": 144.2515, "MEAN_ANOMALY": 336.0028, "EPHEMERIS_TYPE": 0, "CLASSIFICATION_TYPE": "U", "NORAD_CAT_ID": 3133, "ELEMENT_SET_NO": 999, "REV_AT_EPOCH": 57035, "BSTAR": 0.00018666, "MEAN_MOTION_DOT": 1.34e-06, "MEAN_MOTION_DDOT": 0}, "tle": {"line1": "1 03133U 68012A   25355.38079691  .00000134  00000+0  18666-3 0  9997", "line2": "2 03133  90.0284 273.6634 0074673 144.2515 336.0028 13.51567661570358"}}, "geometry": {"type": "Point", "coordinates": [93.62645898485398, -53.106816595654855]}}, {"type": "Feature", "properties": {"norad_id": 4507, "name": "NNSS 19 (TRANSIT 19)", "group": "nnss", "lat": -13.804071317997842, "lon": 54.53874099241661, "alt_km": 1033.9640989165655, "timestamp": "2025-12-21T16:47:55.006721+00:00", "meta": {"OBJECT_NAME": "NNSS 19 (TRANSIT 19)", "OBJECT_ID": "1970-067A", "EPOCH": "2025-12-21T08:42:56.920320", "MEAN_MOTION": 13.51316766, "ECCENTRICITY": 0.0170228, "INCLINATION": 90.005, "RA_OF_ASC_NODE": 234.5398, "ARG_OF_PERICENTER": 268.1418, "MEAN_ANOMALY": 90.0231, "EPHEMERIS_TYPE": 0, "CLASSIFICATION_TYPE": "U", "NORAD_CAT_ID": 4507, "ELEMENT_SET_NO": 999, "REV_AT_EPOCH": 72338, "BSTAR": 0.00014686, "MEAN_MOTION_DOT": 1.12e-06, "MEAN_MOTION_DDOT": 0}, "tle": {"line1": "1 04507U 70067A   25355.36315880  .00000112  00000+0  14686-3 0  9991", "line2": "2 04507  90.0050 234.5398 0170228 268.1418  90.0231 13.51316766723383"}}, "geometry": {"type": "Point", "coordinates": [54.53874099241661, -13.804071317997842]}}, {"type": "Feature", "properties": {"norad_id": 6909, "name": "NNSS 20 (TRANSIT 20)", "group": "nnss", "lat": -17.46111425672321, "lon": 74.96517344056643, "alt_km": 1093.908666921273, "timestamp": "2025-12-21T16:47:55.006732+00:00", "meta": {"OBJECT_NAME": "NNSS 20 (TRANSIT 20)", "OBJECT_ID": "1973-081A", "EPOCH": "2025-12-21T10:35:52.643328", "MEAN_MOTION": 13.71438625, "ECCENTRICITY": 0.0156369, "INCLINATION": 89.8562, "RA_OF_ASC_NODE": 254.9238, "ARG_OF_PERICENTER": 52.5426, "MEAN_ANOMALY": 308.9843, "EPHEMERIS_TYPE": 0, "CLASSIFICATION_TYPE": "U", "NORAD_CAT_ID": 6909, "ELEMENT_SET_NO": 999, "REV_AT_EPOCH": 80480, "BSTAR": 0.00025655, "MEAN_MOTION_DOT": 2.63e-06, "MEAN_MOTION_DDOT": 0}, "tle": {"line1": "1 06909U 73081A   25355.44158152  .00000263  00000+0  25655-3 0  9999", "line2": "2 06909  89.8562 254.9238 0156369  52.5426 308.9843 13.71438625804806"}}, "geometry": {"type": "Point", "coordinates": [74.96517344056643, -17.46111425672321]}}, {"type": "Feature", "properties": {"norad_id": 10457, "name": "TRANSAT", "group": "nnss", "lat": 55.97199030262599, "lon": -102.24196180178251, "alt_km": 1055.8506411613707, "timestamp": "2025-12-21T16:47:55.006743+00:00", "meta": {"OBJECT_NAME": "TRANSAT", "OBJECT_ID": "1977-106A", "EPOCH": "2025-12-21T12:40:51.231072", "MEAN_MOTION": 13.48944881, "ECCENTRICITY": 0.0026227, "INCLINATION": 89.6479, "RA_OF_ASC_NODE": 78.2859, "ARG_OF_PERICENTER": 164.38, "MEAN_ANOMALY": 207.0891, "EPHEMERIS_TYPE": 0, "CLASSIFICATION_TYPE": "U", "NORAD_CAT_ID": 10457, "ELEMENT_SET_NO": 999, "REV_AT_EPOCH": 36862, "BSTAR": 0.00012966, "MEAN_MOTION_DOT": 9.2e-07, "MEAN_MOTION_DDOT": 0}, "tle": {"line1": "1 10457U 77106A   25355.52837073  .00000092  00000+0  12966-3 0  9990", "line2": "2 10457  89.6479  78.2859 0026227 164.3800 207.0891 13.48944881368624"}}, "geometry": {"type": "Point", "coordinates": [-102.24196180178251, 55.97199030262599]}}, {"type": "Feature", "properties": {"norad_id": 12458, "name": "NOVA 1", "group": "nnss", "lat": -81.13016615126634, "lon": 90.31411251432132, "alt_km": 1191.1192399745605, "timestamp": "2025-12-21T16:47:55.006753+00:00", "meta": {"OBJECT_NAME": "NOVA 1", "OBJECT_ID": "1981-044A", "EPOCH": "2025-12-21T08:29:23.478144", "MEAN_MOTION": 13.23279339, "ECCENTRICITY": 0.0015835, "INCLINATION": 89.8527, "RA_OF_ASC_NODE": 91.2635, "ARG_OF_PERICENTER": 82.8153, "MEAN_ANOMALY": 347.8596, "EPHEMERIS_TYPE": 0, "CLASSIFICATION_TYPE": "U", "NORAD_CAT_ID": 12458, "ELEMENT_SET_NO": 999, "REV_AT_EPOCH": 15300, "BSTAR": 0.00010563, "MEAN_MOTION_DOT": 5.4e-07, "MEAN_MOTION_DDOT": 0}, "tle": {"line1": "1 12458U 81044A   25355.35374396  .00000054  00000+0  10563-3 0  9993", "line2": "2 12458  89.8527  91.2635 0015835  82.8153 347.8596 13.23279339153009"}}, "geometry": {"type": "Point", "coordinates": [90.31411251432132, -81.13016615126634]}}, {"type": "Feature", "properties": {"norad_id": 15362, "name": "NOVA 3", "group": "nnss", "lat": 35.92881354851081, "lon": -99.27126418307112, "alt_km": 1192.1856357655342, "timestamp": "2025-12-21T16:47:55.006764+00:00", "meta": {"OBJECT_NAME": "NOVA 3", "OBJECT_ID": "1984-110A", "EPOCH": "2025-12-21T12:29:45.710016", "MEAN_MOTION": 13.23045611, "ECCENTRICITY": 0.002998, "INCLINATION": 90.1221, "RA_OF_ASC_NODE": 80.6381, "ARG_OF_PERICENTER": 306.6925, "MEAN_ANOMALY": 64.0147, "EPHEMERIS_TYPE": 0, "CLASSIFICATION_TYPE": "U", "NORAD_CAT_ID": 15362, "ELEMENT_SET_NO": 999, "REV_AT_EPOCH": 98815, "BSTAR": 0.00017525, "MEAN_MOTION_DOT": 8.2e-07, "MEAN_MOTION_DDOT": 0}, "tle": {"line1": "1 15362U 84110A   25355.52066794  .00000082  00000+0  17525-3 0  9992", "line2": "2 15362  90.1221  80.6381 0029980 306.6925  64.0147 13.23045611988158"}}, "geometry": {"type": "Point", "coordinates": [-99.27126418307112, 35.92881354851081]}}, {"type": "Feature", "properties": {"norad_id": 15935, "name": "OSCAR 30", "group": "nnss", "lat": -76.68740455753962, "lon": 100.69351481842382, "alt_km": 1220.8594525751842, "timestamp": "2025-12-21T16:47:55.006774+00:00", "meta": {"OBJECT_NAME": "OSCAR 30", "OBJECT_ID": "1985-066A", "EPOCH": "2025-12-21T06:41:53.387232", "MEAN_MOTION": 13.36079593, "ECCENTRICITY": 0.016913, "INCLINATION": 90.1655, "RA_OF_ASC_NODE": 99.9868, "ARG_OF_PERICENTER": 60.0583, "MEAN_ANOMALY": 1.5893, "EPHEMERIS_TYPE": 0, "CLASSIFICATION_TYPE": "U", "NORAD_CAT_ID": 15935, "ELEMENT_SET_NO": 999, "REV_AT_EPOCH": 96567, "BSTAR": 0.00014528, "MEAN_MOTION_DOT": 9.1e-07, "MEAN_MOTION_DDOT": 0}, "tle": {"line1": "1 15935U 85066A   25355.27909013  .00000091  00000+0  14528-3 0  9991", "line2": "2 15935  90.1655  99.9868 0169130  60.0583   1.5893 13.36079593965677"}}, "geometry": {"type": "Point", "coordinates": [100.69351481842382, -76.68740455753962]}}, {"type": "Feature", "properties": {"norad_id": 15936, "name": "OSCAR 24", "group": "nnss", "lat": -6.502275755420981, "lon": 92.48432147706681, "alt_km": 1086.1222108523152, "timestamp": "2025-12-21T16:47:55.006784+00:00", "meta": {"OBJECT_NAME": "OSCAR 24", "OBJECT_ID": "1985-066B", "EPOCH": "2025-12-21T06:11:02.071104", "MEAN_MOTION": 13.35936911, "ECCENTRICITY": 0.0170261, "INCLINATION": 90.1791, "RA_OF_ASC_NODE": 92.4561, "ARG_OF_PERICENTER": 66.5575, "MEAN_ANOMALY": 323.0621, "EPHEMERIS_TYPE": 0, "CLASSIFICATION_TYPE": "U", "NORAD_CAT_ID": 15936, "ELEMENT_SET_NO": 999, "REV_AT_EPOCH": 96757, "BSTAR": 0.00012482, "MEAN_MOTION_DOT": 7.9e-07, "MEAN_MOTION_DDOT": 0}, "tle": {"line1": "1 15936U 85066B   25355.25766286  .00000079  00000+0  12482-3 0  9996", "line2": "2 15936  90.1791  92.4561 0170261  66.5575 323.0621 13.35936911967573"}}, "geometry": {"type": "Point", "coordinates": [92.48432147706681, -6.502275755420981]}}]}